[{"CCSDS_OMM_VERS":"2.0","COMMENT":"GENERATED VIA SPACE-TRACK.ORG API","CREATION_DATE":"2021-05-10T02:07:54","ORIGINATOR":"18 SPCS","OBJECT_NAME":"ONEWEB-0220","OBJECT_ID":"2021-031Y","CENTER_NAME":"EARTH","REF_FRAME":"TEME","TIME_SYSTEM":"UTC","MEAN_ELEMENT_THEORY":"SGP4","EPOCH":"2021-05-09T22:00:00.999936","MEAN_MOTION":"15.42266098","ECCENTRICITY":"0.00099380","INCLINATION":"87.3977","RA_OF_ASC_NODE":"308.1793","ARG_OF_PERICENTER":"196.5923","MEAN_ANOMALY":"64.6123","EPHEMERIS_TYPE":"0","CLASSIFICATION_TYPE":"U","NORAD_CAT_ID":"48232","ELEMENT_SET_NO":"999","REV_AT_EPOCH":"177","BSTAR":"0.00147960000000","MEAN_MOTION_DOT":"0.00064130","MEAN_MOTION_DDOT":"0.0000000000000","SEMIMAJOR_AXIS":"6817.560","PERIOD":"93.369","APOAPSIS":"446.200","PERIAPSIS":"432.650","OBJECT_TYPE":"PAYLOAD","RCS_SIZE":"LARGE","COUNTRY_CODE":"UK","LAUNCH_DATE":"2021-04-25","SITE":"VOSTO","DECAY_DATE":null,"FILE":"3033815","GP_ID":"176985667","TLE_LINE0":"0 ONEWEB-0220","TLE_LINE1":"1 48232U 21031Y   21129.91667824  .00064130  00000-0  14796-2 0  9997","TLE_LINE2":"2 48232  87.3977 308.1793 0009938 196.5923  64.6123 15.42266098  1777"},{"CCSDS_OMM_VERS":"2.0","COMMENT":"GENERATED VIA SPACE-TRACK.ORG API","CREATION_DATE":"2021-05-10T06:46:10","ORIGINATOR":"18 SPCS","OBJECT_NAME":"ONEWEB-0220","OBJECT_ID":"2021-031Y","CENTER_NAME":"EARTH","REF_FRAME":"TEME","TIME_SYSTEM":"UTC","MEAN_ELEMENT_THEORY":"SGP4","EPOCH":"2021-05-10T04:00:00.999936","MEAN_MOTION":"15.42315212","ECCENTRICITY":"0.00099940","INCLINATION":"87.3976","RA_OF_ASC_NODE":"308.0911","ARG_OF_PERICENTER":"194.7434","MEAN_ANOMALY":"13.5340","EPHEMERIS_TYPE":"0","CLASSIFICATION_TYPE":"U","NORAD_CAT_ID":"48232","ELEMENT_SET_NO":"999","REV_AT_EPOCH":"218","BSTAR":"-0.00121670000000","MEAN_MOTION_DOT":"-0.00051963","MEAN_MOTION_DDOT":"0.0000000000000","SEMIMAJOR_AXIS":"6817.415","PERIOD":"93.366","APOAPSIS":"446.094","PERIAPSIS":"432.467","OBJECT_TYPE":"PAYLOAD","RCS_SIZE":"LARGE","COUNTRY_CODE":"UK","LAUNCH_DATE":"2021-04-25","SITE":"VOSTO","DECAY_DATE":null,"FILE":"3033877","GP_ID":"176987307","TLE_LINE0":"0 ONEWEB-0220","TLE_LINE1":"1 48232U 21031Y   21130.16667824 -.00051963  00000-0 -12167-2 0  9998","TLE_LINE2":"2 48232  87.3976 308.0911 0009994 194.7434  13.5340 15.42315212  2189"},{"CCSDS_OMM_VERS":"2.0","COMMENT":"GENERATED VIA SPACE-TRACK.ORG API","CREATION_DATE":"2021-05-10T14:36:10","ORIGINATOR":"18 SPCS","OBJECT_NAME":"ONEWEB-0220","OBJECT_ID":"2021-031Y","CENTER_NAME":"EARTH","REF_FRAME":"TEME","TIME_SYSTEM":"UTC","MEAN_ELEMENT_THEORY":"SGP4","EPOCH":"2021-05-10T12:00:00.999648","MEAN_MOTION":"15.42306435","ECCENTRICITY":"0.00101940","INCLINATION":"87.3975","RA_OF_ASC_NODE":"307.9719","ARG_OF_PERICENTER":"193.8100","MEAN_ANOMALY":"63.9136","EPHEMERIS_TYPE":"0","CLASSIFICATION_TYPE":"U","NORAD_CAT_ID":"48232","ELEMENT_SET_NO":"999","REV_AT_EPOCH":"223","BSTAR":"-0.00005219100000","MEAN_MOTION_DOT":"-0.00002197","MEAN_MOTION_DDOT":"0.0000000000000","SEMIMAJOR_AXIS":"6817.441","PERIOD":"93.367","APOAPSIS":"446.256","PERIAPSIS":"432.356","OBJECT_TYPE":"PAYLOAD","RCS_SIZE":"LARGE","COUNTRY_CODE":"UK","LAUNCH_DATE":"2021-04-25","SITE":"VOSTO","DECAY_DATE":null,"FILE":"3034092","GP_ID":"176992426","TLE_LINE0":"0 ONEWEB-0220","TLE_LINE1":"1 48232U 21031Y   21130.50001157 -.00002197  00000-0 -52191-4 0  9995","TLE_LINE2":"2 48232  87.3975 307.9719 0010194 193.8100  63.9136 15.42306435  2231"},{"CCSDS_OMM_VERS":"2.0","COMMENT":"GENERATED VIA SPACE-TRACK.ORG API","CREATION_DATE":"2021-05-10T17:51:19","ORIGINATOR":"18 SPCS","OBJECT_NAME":"ONEWEB-0220","OBJECT_ID":"2021-031Y","CENTER_NAME":"EARTH","REF_FRAME":"TEME","TIME_SYSTEM":"UTC","MEAN_ELEMENT_THEORY":"SGP4","EPOCH":"2021-05-10T14:00:01.000224","MEAN_MOTION":"15.42327052","ECCENTRICITY":"0.00101870","INCLINATION":"87.3976","RA_OF_ASC_NODE":"307.9416","ARG_OF_PERICENTER":"193.8753","MEAN_ANOMALY":"166.2040","EPHEMERIS_TYPE":"0","CLASSIFICATION_TYPE":"U","NORAD_CAT_ID":"48232","ELEMENT_SET_NO":"999","REV_AT_EPOCH":"175","BSTAR":"-0.00132840000000","MEAN_MOTION_DOT":"-0.00056730","MEAN_MOTION_DDOT":"0.0000000000000","SEMIMAJOR_AXIS":"6817.380","PERIOD":"93.365","APOAPSIS":"446.190","PERIAPSIS":"432.300","OBJECT_TYPE":"PAYLOAD","RCS_SIZE":"LARGE","COUNTRY_CODE":"UK","LAUNCH_DATE":"2021-04-25","SITE":"VOSTO","DECAY_DATE":null,"FILE":"3034258","GP_ID":"177018691","TLE_LINE0":"0 ONEWEB-0220","TLE_LINE1":"1 48232U 21031Y   21130.58334491 -.00056730  00000-0 -13284-2 0  9993","TLE_LINE2":"2 48232  87.3976 307.9416 0010187 193.8753 166.2040 15.42327052  1757"},{"CCSDS_OMM_VERS":"2.0","COMMENT":"GENERATED VIA SPACE-TRACK.ORG API","CREATION_DATE":"2021-05-11T02:30:48","ORIGINATOR":"18 SPCS","OBJECT_NAME":"ONEWEB-0220","OBJECT_ID":"2021-031Y","CENTER_NAME":"EARTH","REF_FRAME":"TEME","TIME_SYSTEM":"UTC","MEAN_ELEMENT_THEORY":"SGP4","EPOCH":"2021-05-10T22:00:00.999936","MEAN_MOTION":"15.42269904","ECCENTRICITY":"0.00101840","INCLINATION":"87.3976","RA_OF_ASC_NODE":"307.8214","ARG_OF_PERICENTER":"192.2699","MEAN_ANOMALY":"217.2793","EPHEMERIS_TYPE":"0","CLASSIFICATION_TYPE":"U","NORAD_CAT_ID":"48232","ELEMENT_SET_NO":"999","REV_AT_EPOCH":"181","BSTAR":"0.00146120000000","MEAN_MOTION_DOT":"0.00063340","MEAN_MOTION_DDOT":"0.0000000000000","SEMIMAJOR_AXIS":"6817.549","PERIOD":"93.369","APOAPSIS":"446.357","PERIAPSIS":"432.471","OBJECT_TYPE":"PAYLOAD","RCS_SIZE":"LARGE","COUNTRY_CODE":"UK","LAUNCH_DATE":"2021-04-25","SITE":"VOSTO","DECAY_DATE":null,"FILE":"3034477","GP_ID":"177046608","TLE_LINE0":"0 ONEWEB-0220","TLE_LINE1":"1 48232U 21031Y   21130.91667824  .00063340  00000-0  14612-2 0  9998","TLE_LINE2":"2 48232  87.3976 307.8214 0010184 192.2699 217.2793 15.42269904  1811"},{"CCSDS_OMM_VERS":"2.0","COMMENT":"GENERATED VIA SPACE-TRACK.ORG API","CREATION_DATE":"2021-05-11T17:54:54","ORIGINATOR":"18 SPCS","OBJECT_NAME":"ONEWEB-0220","OBJECT_ID":"2021-031Y","CENTER_NAME":"EARTH","REF_FRAME":"TEME","TIME_SYSTEM":"UTC","MEAN_ELEMENT_THEORY":"SGP4","EPOCH":"2021-05-11T06:00:00.999648","MEAN_MOTION":"15.42291699","ECCENTRICITY":"0.00103370","INCLINATION":"87.3979","RA_OF_ASC_NODE":"307.7037","ARG_OF_PERICENTER":"190.5068","MEAN_ANOMALY":"268.4978","EPHEMERIS_TYPE":"0","CLASSIFICATION_TYPE":"U","NORAD_CAT_ID":"48232","ELEMENT_SET_NO":"999","REV_AT_EPOCH":"176","BSTAR":"0.00022081000000","MEAN_MOTION_DOT":"0.00009555","MEAN_MOTION_DDOT":"0.0000000000000","SEMIMAJOR_AXIS":"6817.485","PERIOD":"93.368","APOAPSIS":"446.397","PERIAPSIS":"432.302","OBJECT_TYPE":"PAYLOAD","RCS_SIZE":"LARGE","COUNTRY_CODE":"UK","LAUNCH_DATE":"2021-04-25","SITE":"VOSTO","DECAY_DATE":null,"FILE":"3034881","GP_ID":"177077888","TLE_LINE0":"0 ONEWEB-0220","TLE_LINE1":"1 48232U 21031Y   21131.25001157  .00009555  00000-0  22081-3 0  9995","TLE_LINE2":"2 48232  87.3979 307.7037 0010337 190.5068 268.4978 15.42291699  1760"},{"CCSDS_OMM_VERS":"2.0","COMMENT":"GENERATED VIA SPACE-TRACK.ORG API","CREATION_DATE":"2021-05-11T22:36:10","ORIGINATOR":"18 SPCS","OBJECT_NAME":"ONEWEB-0220","OBJECT_ID":"2021-031Y","CENTER_NAME":"EARTH","REF_FRAME":"TEME","TIME_SYSTEM":"UTC","MEAN_ELEMENT_THEORY":"SGP4","EPOCH":"2021-05-11T20:00:01.000224","MEAN_MOTION":"15.42271497","ECCENTRICITY":"0.00103570","INCLINATION":"87.3980","RA_OF_ASC_NODE":"307.4935","ARG_OF_PERICENTER":"188.3628","MEAN_ANOMALY":"267.1964","EPHEMERIS_TYPE":"0","CLASSIFICATION_TYPE":"U","NORAD_CAT_ID":"48232","ELEMENT_SET_NO":"999","REV_AT_EPOCH":"244","BSTAR":"0.00130470000000","MEAN_MOTION_DOT":"0.00056519","MEAN_MOTION_DDOT":"0.0000000000000","SEMIMAJOR_AXIS":"6817.544","PERIOD":"93.369","APOAPSIS":"446.470","PERIAPSIS":"432.348","OBJECT_TYPE":"PAYLOAD","RCS_SIZE":"LARGE","COUNTRY_CODE":"UK","LAUNCH_DATE":"2021-04-25","SITE":"VOSTO","DECAY_DATE":null,"FILE":"3035001","GP_ID":"177080048","TLE_LINE0":"0 ONEWEB-0220","TLE_LINE1":"1 48232U 21031Y   21131.83334491  .00056519  00000-0  13047-2 0  9992","TLE_LINE2":"2 48232  87.3980 307.4935 0010357 188.3628 267.1964 15.42271497  2446"},{"CCSDS_OMM_VERS":"2.0","COMMENT":"GENERATED VIA SPACE-TRACK.ORG API","CREATION_DATE":"2021-05-12T04:44:40","ORIGINATOR":"18 SPCS","OBJECT_NAME":"ONEWEB-0220","OBJECT_ID":"2021-031Y","CENTER_NAME":"EARTH","REF_FRAME":"TEME","TIME_SYSTEM":"UTC","MEAN_ELEMENT_THEORY":"SGP4","EPOCH":"2021-05-11T22:00:00.999936","MEAN_MOTION":"15.42276093","ECCENTRICITY":"0.00103450","INCLINATION":"87.3979","RA_OF_ASC_NODE":"307.4635","ARG_OF_PERICENTER":"188.0288","MEAN_ANOMALY":"9.8907","EPHEMERIS_TYPE":"0","CLASSIFICATION_TYPE":"U","NORAD_CAT_ID":"48232","ELEMENT_SET_NO":"999","REV_AT_EPOCH":"181","BSTAR":"0.00140660000000","MEAN_MOTION_DOT":"0.00060973","MEAN_MOTION_DDOT":"0.0000000000000","SEMIMAJOR_AXIS":"6817.531","PERIOD":"93.368","APOAPSIS":"446.448","PERIAPSIS":"432.343","OBJECT_TYPE":"PAYLOAD","RCS_SIZE":"LARGE","COUNTRY_CODE":"UK","LAUNCH_DATE":"2021-04-25","SITE":"VOSTO","DECAY_DATE":null,"FILE":"3035157","GP_ID":"177106176","TLE_LINE0":"0 ONEWEB-0220","TLE_LINE1":"1 48232U 21031Y   21131.91667824  .00060973  00000-0  14066-2 0  9991","TLE_LINE2":"2 48232  87.3979 307.4635 0010345 188.0288   9.8907 15.42276093  1812"}]